NORAD_CAT_ID,OBJECT_NAME,OBJECT_TYPE,EPOCH,MEAN_MOTION,ECCENTRICITY,INCLINATION,RA_OF_ASC_NODE,ARG_OF_PERICENTER,MEAN_ANOMALY,BSTAR,MEAN_MOTION_DOT,MEAN_MOTION_DDOT,TLE_LINE0,TLE_LINE1,TLE_LINE2,SEMIMAJOR_AXIS,PERIOD,APOGEE,PERIGEE,DECAYED
55635.0,STARLINK-5495,PAYLOAD,2024-01-14 03:24:16,14.98329823,0.0002748,70.0004,5.1184,273.8753,86.2091,-6.4234e-06,-1.7e-06,0.0,0 STARLINK-5495,1 55635U 23021H   24014.14185951 -.00000170  00000-0 -64234-5 0  9991,2 55635  70.0004   5.1184 0002748 273.8753  86.2091 14.98329823 50822,6950.193,96.107,573.968,570.149,0.0
55635.0,STARLINK-5495,PAYLOAD,2024-01-14 08:12:40,14.98331863,0.0002704,70.0006,4.6134,274.5175,85.5675,2.0747e-05,1.55e-06,0.0,0 STARLINK-5495,1 55635U 23021H   24014.34213744  .00000155  00000-0  20747-4 0  9996,2 55635  70.0006   4.6134 0002704 274.5175  85.5675 14.98331863 51155,6950.187,96.107,573.931,570.173,0.0
55635.0,STARLINK-5495,PAYLOAD,2024-01-14 22:37:53,14.98331177,0.0002653,70.0006,3.0992,265.5774,94.5082,5.6436e-05,5.81e-06,0.0,0 STARLINK-5495,1 55635U 23021H   24014.94297539  .00000581  00000-0  56436-4 0  9993,2 55635  70.0006   3.0992 0002653 265.5774  94.5082 14.98331177 51248,6950.189,96.107,573.898,570.21,0.0
55635.0,STARLINK-5495,PAYLOAD,2024-01-15 03:26:17,14.98330785,0.0002689,70.0006,2.5944,261.6643,98.4211,4.4546e-05,4.39e-06,0.0,0 STARLINK-5495,1 55635U 23021H   24015.14325546  .00000439  00000-0  44546-4 0  9997,2 55635  70.0006   2.5944 0002689 261.6643  98.4211 14.98330785 50970,6950.19,96.107,573.924,570.187,0.0
55635.0,STARLINK-5495,PAYLOAD,2024-01-15 08:14:41,14.9833174,0.0002677,70.0007,2.0895,261.0321,99.0535,5.317e-05,5.42e-06,0.0,0 STARLINK-5495,1 55635U 23021H   24015.34353448  .00000542  00000-0  53170-4 0  9999,2 55635  70.0007   2.0895 0002677 261.0321  99.0535 14.98331740 51301,6950.188,96.107,573.913,570.192,0.0
55635.0,STARLINK-5495,PAYLOAD,2024-01-15 22:39:54,14.98327628,0.0002547,70.0012,0.5751,260.0332,100.054,-2.8214e-05,-4.3e-06,0.0,0 STARLINK-5495,1 55635U 23021H   24015.94437969 -.00000430  00000-0 -28214-4 0  9995,2 55635  70.0012   0.5751 0002547 260.0332 100.0540 14.98327628 51396,6950.2,96.107,573.835,570.295,0.0
55635.0,STARLINK-5495,PAYLOAD,2024-01-16 00:16:02,14.9832586,0.0002559,70.0012,0.4065,262.2191,97.8677,-4.6569e-05,-6.48e-06,0.0,0 STARLINK-5495,1 55635U 23021H   24016.01114169 -.00000648  00000-0 -46569-4 0  9992,2 55635  70.0012   0.4065 0002559 262.2191  97.8677 14.98325860 51102,6950.206,96.107,573.849,570.292,0.0
55635.0,STARLINK-5495,PAYLOAD,2024-01-16 08:16:43,14.98316124,0.0002779,70.0006,359.564,264.4334,95.6508,9.0021e-05,9.81e-06,0.0,0 STARLINK-5495,1 55635U 23021H   24016.34494543  .00000981  00000-0  90021-4 0  9995,2 55635  70.0006 359.5640 0002779 264.4334  95.6508 14.98316124 51459,6950.236,96.108,574.032,570.169,0.0
55635.0,STARLINK-5495,PAYLOAD,2024-01-17 03:30:19,14.98332369,0.0002909,70.0002,357.5431,268.7848,91.2978,-1.9831e-06,-1.17e-06,0.0,0 STARLINK-5495,1 55635U 23021H   24017.14605738 -.00000117  00000-0 -19831-5 0  9998,2 55635  70.0002 357.5431 0002909 268.7848  91.2978 14.98332369 51275,6950.186,96.107,574.072,570.029,0.0
55635.0,STARLINK-5495,PAYLOAD,2024-01-17 08:18:43,14.98338179,0.0002963,70.0003,357.0382,269.4713,90.6106,6.7812e-05,7.16e-06,0.0,0 STARLINK-5495,1 55635U 23021H   24017.34633126  .00000716  00000-0  67812-4 0  9996,2 55635  70.0003 357.0382 0002963 269.4713  90.6106 14.98338179 51300,6950.168,96.106,574.092,569.973,0.0
55635.0,STARLINK-5495,PAYLOAD,2024-01-17 22:43:56,14.98327249,0.0002717,70.0013,355.5236,267.3593,92.7255,7.8138e-05,8.39e-06,0.0,0 STARLINK-5495,1 55635U 23021H   24017.94717776  .00000839  00000-0  78138-4 0  9995,2 55635  70.0013 355.5236 0002717 267.3593  92.7255 14.98327249 51698,6950.201,96.107,573.955,570.178,0.0
55635.0,STARLINK-5495,PAYLOAD,2024-01-18 03:32:20,14.98325382,0.0002664,70.0011,355.0194,260.6853,99.4004,6.2033e-05,6.47e-06,0.0,0 STARLINK-5495,1 55635U 23021H   24018.14745928  .00000647  00000-0  62033-4 0  9992,2 55635  70.0011 355.0194 0002664 260.6853  99.4004 14.98325382 51423,6950.207,96.107,573.924,570.221,0.0
55635.0,STARLINK-5495,PAYLOAD,2024-01-18 08:20:44,14.98325034,0.0002809,70.001,354.513,272.6439,87.4398,9.4494e-05,1.035e-05,0.0,0 STARLINK-5495,1 55635U 23021H   24018.34773987  .00001035  00000-0  94494-4 0  9998,2 55635  70.0010 354.5130 0002809 272.6439  87.4398 14.98325034 51753,6950.208,96.107,574.026,570.121,0.0
55635.0,STARLINK-5495,PAYLOAD,2024-01-18 22:45:57,14.98322262,0.0002747,70.0013,352.9983,275.0345,85.0501,0.00019117,2.188e-05,0.0,0 STARLINK-5495,1 55635U 23021H   24018.94857709  .00002188  00000-0  19117-3 0  9997,2 55635  70.0013 352.9983 0002747 275.0345  85.0501 14.98322262 51848,6950.217,96.107,573.991,570.173,0.0
55635.0,STARLINK-5495,PAYLOAD,2024-01-19 03:34:21,14.9833153,0.0002765,70.0009,352.4936,267.8176,92.2666,1.287e-05,6.1e-07,0.0,0 STARLINK-5495,1 55635U 23021H   24019.14885704  .00000061  00000-0  12870-4 0  9994,2 55635  70.0009 352.4936 0002765 267.8176  92.2666 14.98331530 51577,6950.188,96.107,573.975,570.131,0.0
55635.0,STARLINK-5495,PAYLOAD,2024-01-19 08:22:45,14.98306028,0.0002655,70.0011,351.9881,273.4224,86.6631,0.00043932,5.149e-05,0.0,0 STARLINK-5495,1 55635U 23021H   24019.34914291  .00005149  00000-0  43932-3 0  9994,2 55635  70.0011 351.9881 0002655 273.4224  86.6631 14.98306028 51605,6950.267,96.109,573.977,570.287,0.0
55635.0,STARLINK-5495,PAYLOAD,2024-01-19 22:47:58,14.98329468,0.0002866,70.0009,350.4737,273.6454,86.4377,2.0811e-05,1.55e-06,0.0,0 STARLINK-5495,1 55635U 23021H   24019.94997704  .00000155  00000-0  20811-4 0  9994,2 55635  70.0009 350.4737 0002866 273.6454  86.4377 14.98329468 51997,6950.195,96.107,574.051,570.068,0.0
55635.0,STARLINK-5495,PAYLOAD,2024-01-20 03:36:22,14.98329995,0.0002856,70.0009,349.9687,273.5143,86.5689,2.6398e-05,2.22e-06,0.0,0 STARLINK-5495,1 55635U 23021H   24020.15025652  .00000222  00000-0  26398-4 0  9994,2 55635  70.0009 349.9687 0002856 273.5143  86.5689 14.98329995 51720,6950.193,96.107,574.043,570.073,0.0
55635.0,STARLINK-5495,PAYLOAD,2024-01-20 06:48:37,14.98334176,0.000277,70.0011,349.6319,273.7171,86.3671,7.7685e-05,8.34e-06,0.0,0 STARLINK-5495,1 55635U 23021H   24020.28377226  .00000834  00000-0  77685-4 0  9999,2 55635  70.0011 349.6319 0002770 273.7171  86.3671 14.98334176 52042,6950.18,96.107,573.97,570.12,0.0
55635.0,STARLINK-5495,PAYLOAD,2024-01-20 22:49:59,14.98300188,0.0002534,70.0013,347.9493,254.8389,105.249,0.00042736,5.006e-05,0.0,0 STARLINK-5495,1 55635U 23021H   24020.95137959  .00005006  00000-0  42736-3 0  9994,2 55635  70.0013 347.9493 0002534 254.8389 105.2490 14.98300188 52144,6950.285,96.109,573.911,570.389,0.0
55635.0,STARLINK-5495,PAYLOAD,2024-01-21 03:38:23,14.9832622,0.0002584,70.0014,347.4445,260.6717,99.415,-3.4143e-05,-5e-06,0.0,0 STARLINK-5495,1 55635U 23021H   24021.15165950 -.00000500  00000-0 -34143-4 0  9999,2 55635  70.0014 347.4445 0002584 260.6717  99.4150 14.98326220 51873,6950.205,96.107,573.866,570.274,0.0
55635.0,STARLINK-5495,PAYLOAD,2024-01-21 06:50:39,14.98326056,0.000259,70.0015,347.108,261.0153,99.0713,-3.5623e-05,-5.18e-06,0.0,0 STARLINK-5495,1 55635U 23021H   24021.28518011 -.00000518  00000-0 -35623-4 0  9996,2 55635  70.0015 347.1080 0002590 261.0153  99.0713 14.98326056 52196,6950.205,96.107,573.87,570.27,0.0
55635.0,STARLINK-5495,PAYLOAD,2024-01-21 22:51:59,14.9833322,0.000263,70.0016,345.4251,256.4398,103.6468,6.7013e-06,-1.3e-07,0.0,0 STARLINK-5495,1 55635U 23021H   24021.95277408 -.00000013  00000-0  67013-5 0  9990,2 55635  70.0016 345.4251 0002630 256.4398 103.6468 14.98333220 52293,6950.183,96.107,573.876,570.22,0.0
55635.0,STARLINK-5495,PAYLOAD,2024-01-22 03:40:23,14.98332362,0.0002644,70.0016,344.9203,256.5318,103.5546,-1.7363e-06,-1.14e-06,0.0,0 STARLINK-5495,1 55635U 23021H   24022.15305452 -.00000114  00000-0 -17363-5 0  9990,2 55635  70.0016 344.9203 0002644 256.5318 103.5546 14.98332362 52025,6950.186,96.107,573.888,570.213,0.0
55635.0,STARLINK-5495,PAYLOAD,2024-01-22 06:52:39,14.98334299,0.0002943,70.0009,344.5832,269.5246,90.5576,3.8616e-05,3.68e-06,0.0,0 STARLINK-5495,1 55635U 23021H   24022.28657252  .00000368  00000-0  38616-4 0  9994,2 55635  70.0009 344.5832 0002943 269.5246  90.5576 14.98334299 52341,6950.18,96.107,574.09,569.999,0.0
55635.0,STARLINK-5495,PAYLOAD,2024-01-22 22:54:00,14.98326738,0.0002914,70.0009,342.9,266.4696,93.6129,1.5059e-05,8.7e-07,0.0,0 STARLINK-5495,1 55635U 23021H   24022.95417724  .00000087  00000-0  15059-4 0  9990,2 55635  70.0009 342.9000 0002914 266.4696  93.6129 14.98326738 52441,6950.203,96.107,574.093,570.043,0.0
55635.0,STARLINK-5495,PAYLOAD,2024-01-23 03:42:25,14.98326825,0.0002845,70.001,342.3943,267.0472,93.0362,5.3507e-05,5.45e-06,0.0,0 STARLINK-5495,1 55635U 23021H   24023.15445636  .00000545  00000-0  53507-4 0  9995,2 55635  70.0010 342.3943 0002845 267.0472  93.0362 14.98326825 52175,6950.203,96.107,574.045,570.09,0.0
55635.0,STARLINK-5495,PAYLOAD,2024-01-23 06:54:40,14.98332079,0.0002736,70.0015,342.0583,263.7199,96.3648,0.00011494,1.279e-05,0.0,0 STARLINK-5495,1 55635U 23021H   24023.28797140  .00001279  00000-0  11494-3 0  9992,2 55635  70.0015 342.0583 0002736 263.7199  96.3648 14.98332079 52198,6950.186,96.107,573.953,570.15,0.0
55635.0,STARLINK-5495,PAYLOAD,2024-01-23 22:56:01,14.98330999,0.0002678,70.0019,340.3775,251.2558,108.8311,-1.4317e-05,-2.64e-06,0.0,0 STARLINK-5495,1 55635U 23021H   24023.95557415 -.00000264  00000-0 -14317-4 0  9998,2 55635  70.0019 340.3775 0002678 251.2558 108.8311 14.98330999 52591,6950.19,96.107,573.916,570.194,0.0
55635.0,STARLINK-5495,PAYLOAD,2024-01-24 06:56:42,14.98330275,0.000275,70.0017,339.5355,256.373,103.7122,-2.4658e-05,-3.87e-06,0.0,0 STARLINK-5495,1 55635U 23021H   24024.28937508 -.00000387  00000-0 -24658-4 0  9995,2 55635  70.0017 339.5355 0002750 256.3730 103.7122 14.98330275 52346,6950.192,96.107,573.968,570.146,0.0
